{
  "type": "FeatureCollection",
  "features": [
    {
      "type": "Feature",
      "properties": {
        "norad_id": 42988,
        "name": "SKYSAT-C10",
        "group": "resource",
        "lat": -23.076343506616862,
        "lon": -67.92567967510413,
        "alt_km": 475.62897365729714,
        "timestamp": "2025-12-10T09:57:44.361905+00:00",
        "meta_object_name": "SKYSAT-C10",
        "meta_object_id": "2017-068B",
        "meta_epoch": "2025-12-10T04:22:33.077856",
        "meta_mean_motion": 15.31972961,
        "meta_eccentricity": 0.0005328,
        "meta_inclination": 97.4259,
        "meta_ra_of_asc_node": 115.0265,
        "meta_arg_of_pericenter": 111.1463,
        "meta_mean_anomaly": 249.0348,
        "meta_ephemeris_type": 0,
        "meta_classification_type": "U",
        "meta_norad_cat_id": 42988,
        "meta_element_set_no": 999,
        "meta_rev_at_epoch": 45340,
        "meta_bstar": 0.00051429,
        "meta_mean_motion_dot": 0.0001582,
        "meta_mean_motion_ddot": 0,
        "tle_line1": "1 42988U 17068B   25344.18232729  .00015820  00000+0  51429-3 0  9994",
        "tle_line2": "2 42988  97.4259 115.0265 0005328 111.1463 249.0348 15.31972961453404"
      },
      "geometry": {
        "type": "Point",
        "coordinates": [
          -67.92567967510413,
          -23.076343506616862
        ]
      }
    },
    {
      "type": "Feature",
      "properties": {
        "norad_id": 42989,
        "name": "SKYSAT-C9",
        "group": "resource",
        "lat": 17.008919018448026,
        "lon": 112.36617422763204,
        "alt_km": 457.18958533673776,
        "timestamp": "2025-12-10T09:57:44.361915+00:00",
        "meta_object_name": "SKYSAT-C9",
        "meta_object_id": "2017-068C",
        "meta_epoch": "2025-12-10T03:38:00.930624",
        "meta_mean_motion": 15.35943054,
        "meta_eccentricity": 0.0010699,
        "meta_inclination": 97.4188,
        "meta_ra_of_asc_node": 114.3849,
        "meta_arg_of_pericenter": 96.0336,
        "meta_mean_anomaly": 264.2127,
        "meta_ephemeris_type": 0,
        "meta_classification_type": "U",
        "meta_norad_cat_id": 42989,
        "meta_element_set_no": 999,
        "meta_rev_at_epoch": 45368,
        "meta_bstar": 0.00051763,
        "meta_mean_motion_dot": 0.00018083,
        "meta_mean_motion_ddot": 0,
        "tle_line1": "1 42989U 17068C   25344.15139966  .00018083  00000+0  51763-3 0  9996",
        "tle_line2": "2 42989  97.4188 114.3849 0010699  96.0336 264.2127 15.35943054453682"
      },
      "geometry": {
        "type": "Point",
        "coordinates": [
          112.36617422763204,
          17.008919018448026
        ]
      }
    },
    {
      "type": "Feature",
      "properties": {
        "norad_id": 42990,
        "name": "SKYSAT-C8",
        "group": "resource",
        "lat": 14.087586802730446,
        "lon": 112.52911095263954,
        "alt_km": 467.26861868115793,
        "timestamp": "2025-12-10T09:57:44.361925+00:00",
        "meta_object_name": "SKYSAT-C8",
        "meta_object_id": "2017-068D",
        "meta_epoch": "2025-12-09T19:47:59.351136",
        "meta_mean_motion": 15.32817038,
        "meta_eccentricity": 0.0001784,
        "meta_inclination": 97.428,
        "meta_ra_of_asc_node": 113.8129,
        "meta_arg_of_pericenter": 1.5,
        "meta_mean_anomaly": 358.6247,
        "meta_ephemeris_type": 0,
        "meta_classification_type": "U",
        "meta_norad_cat_id": 42990,
        "meta_element_set_no": 999,
        "meta_rev_at_epoch": 45326,
        "meta_bstar": 0.00051814,
        "meta_mean_motion_dot": 0.00016361,
        "meta_mean_motion_ddot": 0,
        "tle_line1": "1 42990U 17068D   25343.82499249  .00016361  00000+0  51814-3 0  9998",
        "tle_line2": "2 42990  97.4280 113.8129 0001784   1.5000 358.6247 15.32817038453260"
      },
      "geometry": {
        "type": "Point",
        "coordinates": [
          112.52911095263954,
          14.087586802730446
        ]
      }
    },
    {
      "type": "Feature",
      "properties": {
        "norad_id": 42991,
        "name": "SKYSAT-C7",
        "group": "resource",
        "lat": -54.123409143008466,
        "lon": -74.94513306184676,
        "alt_km": 481.4174080529474,
        "timestamp": "2025-12-10T09:57:44.361936+00:00",
        "meta_object_name": "SKYSAT-C7",
        "meta_object_id": "2017-068E",
        "meta_epoch": "2025-12-10T04:14:21.518016",
        "meta_mean_motion": 15.3223349,
        "meta_eccentricity": 0.0007744,
        "meta_inclination": 97.4288,
        "meta_ra_of_asc_node": 115.2091,
        "meta_arg_of_pericenter": 65.3128,
        "meta_mean_anomaly": 294.8919,
        "meta_ephemeris_type": 0,
        "meta_classification_type": "U",
        "meta_norad_cat_id": 42991,
        "meta_element_set_no": 999,
        "meta_rev_at_epoch": 45338,
        "meta_bstar": 0.00050814,
        "meta_mean_motion_dot": 0.00015765,
        "meta_mean_motion_ddot": 0,
        "tle_line1": "1 42991U 17068E   25344.17663794  .00015765  00000+0  50814-3 0  9992",
        "tle_line2": "2 42991  97.4288 115.2091 0007744  65.3128 294.8919 15.32233490453388"
      },
      "geometry": {
        "type": "Point",
        "coordinates": [
          -74.94513306184676,
          -54.123409143008466
        ]
      }
    },
    {
      "type": "Feature",
      "properties": {
        "norad_id": 42992,
        "name": "SKYSAT-C6",
        "group": "resource",
        "lat": -1.5563787575392976,
        "lon": 116.09202431525037,
        "alt_km": 474.9204636059003,
        "timestamp": "2025-12-10T09:57:44.361946+00:00",
        "meta_object_name": "SKYSAT-C6",
        "meta_object_id": "2017-068F",
        "meta_epoch": "2025-12-10T03:41:46.890816",
        "meta_mean_motion": 15.31400809,
        "meta_eccentricity": 0.0005227,
        "meta_inclination": 97.4322,
        "meta_ra_of_asc_node": 115.6271,
        "meta_arg_of_pericenter": 89.597,
        "meta_mean_anomaly": 270.587,
        "meta_ephemeris_type": 0,
        "meta_classification_type": "U",
        "meta_norad_cat_id": 42992,
        "meta_element_set_no": 999,
        "meta_rev_at_epoch": 45336,
        "meta_bstar": 0.00048225,
        "meta_mean_motion_dot": 0.00014564,
        "meta_mean_motion_ddot": 0,
        "tle_line1": "1 42992U 17068F   25344.15401494  .00014564  00000+0  48225-3 0  9997",
        "tle_line2": "2 42992  97.4322 115.6271 0005227  89.5970 270.5870 15.31400809453363"
      },
      "geometry": {
        "type": "Point",
        "coordinates": [
          116.09202431525037,
          -1.5563787575392976
        ]
      }
    },
    {
      "type": "Feature",
      "properties": {
        "norad_id": 43111,
        "name": "CARTOSAT-2F",
        "group": "resource",
        "lat": -26.79315985812634,
        "lon": -141.68925141891023,
        "alt_km": 513.696789131287,
        "timestamp": "2025-12-10T09:57:44.361956+00:00",
        "meta_object_name": "CARTOSAT-2F",
        "meta_object_id": "2018-004A",
        "meta_epoch": "2025-12-10T04:18:43.403328",
        "meta_mean_motion": 15.19230477,
        "meta_eccentricity": 7.61e-05,
        "meta_inclination": 97.4313,
        "meta_ra_of_asc_node": 41.8584,
        "meta_arg_of_pericenter": 149.1348,
        "meta_mean_anomaly": 210.9932,
        "meta_ephemeris_type": 0,
        "meta_classification_type": "U",
        "meta_norad_cat_id": 43111,
        "meta_element_set_no": 999,
        "meta_rev_at_epoch": 43863,
        "meta_bstar": 0.00028203,
        "meta_mean_motion_dot": 5.874e-05,
        "meta_mean_motion_ddot": 0,
        "tle_line1": "1 43111U 18004A   25344.17966902  .00005874  00000+0  28203-3 0  9992",
        "tle_line2": "2 43111  97.4313  41.8584 0000761 149.1348 210.9932 15.19230477438632"
      },
      "geometry": {
        "type": "Point",
        "coordinates": [
          -141.68925141891023,
          -26.79315985812634
        ]
      }
    },
    {
      "type": "Feature",
      "properties": {
        "norad_id": 43259,
        "name": "GAOFEN-1 02",
        "group": "resource",
        "lat": -28.882363587756522,
        "lon": 46.69832099363973,
        "alt_km": 646.7506784235229,
        "timestamp": "2025-12-10T09:57:44.361966+00:00",
        "meta_object_name": "GAOFEN-1 02",
        "meta_object_id": "2018-031A",
        "meta_epoch": "2025-12-10T05:12:53.574336",
        "meta_mean_motion": 14.76472591,
        "meta_eccentricity": 0.0001491,
        "meta_inclination": 98.0805,
        "meta_ra_of_asc_node": 42.0056,
        "meta_arg_of_pericenter": 220.4185,
        "meta_mean_anomaly": 139.6913,
        "meta_ephemeris_type": 0,
        "meta_classification_type": "U",
        "meta_norad_cat_id": 43259,
        "meta_element_set_no": 999,
        "meta_rev_at_epoch": 41481,
        "meta_bstar": 0.00022931,
        "meta_mean_motion_dot": 1.544e-05,
        "meta_mean_motion_ddot": 0,
        "tle_line1": "1 43259U 18031A   25344.21728674  .00001544  00000+0  22931-3 0  9994",
        "tle_line2": "2 43259  98.0805  42.0056 0001491 220.4185 139.6913 14.76472591414815"
      },
      "geometry": {
        "type": "Point",
        "coordinates": [
          46.69832099363973,
          -28.882363587756522
        ]
      }
    }
  ]
}